{
  "type": "FeatureCollection",
  "features": [
    {
      "type": "Feature",
      "properties": {
        "norad_id": 32185,
        "name": "FENGYUN 1C DEB",
        "group": "fengyun-1c-debris",
        "lat": 16.910622764492338,
        "lon": 12.145393927682012,
        "alt_km": 641.0708809667749,
        "timestamp": "2025-12-09T14:52:26.447708+00:00",
        "meta_object_name": "FENGYUN 1C DEB",
        "meta_object_id": "1999-025CUF",
        "meta_epoch": "2025-12-08T18:59:15.066240",
        "meta_mean_motion": 15.02878962,
        "meta_eccentricity": 0.01637565,
        "meta_inclination": 98.9035,
        "meta_ra_of_asc_node": 188.4618,
        "meta_arg_of_pericenter": 27.9793,
        "meta_mean_anomaly": 333.0112,
        "meta_ephemeris_type": 0,
        "meta_classification_type": "U",
        "meta_norad_cat_id": 32185,
        "meta_element_set_no": 999,
        "meta_rev_at_epoch": 94956,
        "meta_bstar": 0.003527273,
        "meta_mean_motion_dot": 0.00063856,
        "meta_mean_motion_ddot": 0,
        "tle_line1": "1 32185U 99025CUF 25342.79114660  .00063856  00000+0  35273-2 0  9993",
        "tle_line2": "2 32185  98.9035 188.4618 0163756  27.9793 333.0112 15.02878962949560"
      },
      "geometry": {
        "type": "Point",
        "coordinates": [
          12.145393927682012,
          16.910622764492338
        ]
      }
    },
    {
      "type": "Feature",
      "properties": {
        "norad_id": 32186,
        "name": "FENGYUN 1C DEB",
        "group": "fengyun-1c-debris",
        "lat": 66.92305018760138,
        "lon": 10.643383943905791,
        "alt_km": 1121.6080861446626,
        "timestamp": "2025-12-09T14:52:26.447719+00:00",
        "meta_object_name": "FENGYUN 1C DEB",
        "meta_object_id": "1999-025CUG",
        "meta_epoch": "2025-12-07T10:16:26.641632",
        "meta_mean_motion": 13.76491399,
        "meta_eccentricity": 0.02744941,
        "meta_inclination": 99.6094,
        "meta_ra_of_asc_node": 31.8583,
        "meta_arg_of_pericenter": 214.4803,
        "meta_mean_anomaly": 161.7131,
        "meta_ephemeris_type": 0,
        "meta_classification_type": "U",
        "meta_norad_cat_id": 32186,
        "meta_element_set_no": 999,
        "meta_rev_at_epoch": 62537,
        "meta_bstar": 0.0016599073,
        "meta_mean_motion_dot": 2.096e-05,
        "meta_mean_motion_ddot": 0,
        "tle_line1": "1 32186U 99025CUG 25341.42808613  .00002096  00000+0  16599-2 0  9990",
        "tle_line2": "2 32186  99.6094  31.8583 0274494 214.4803 161.7131 13.76491399625374"
      },
      "geometry": {
        "type": "Point",
        "coordinates": [
          10.643383943905791,
          66.92305018760138
        ]
      }
    },
    {
      "type": "Feature",
      "properties": {
        "norad_id": 32187,
        "name": "FENGYUN 1C DEB",
        "group": "fengyun-1c-debris",
        "lat": 10.48600354314781,
        "lon": -115.51390988311859,
        "alt_km": 860.1610167232875,
        "timestamp": "2025-12-09T14:52:26.447729+00:00",
        "meta_object_name": "FENGYUN 1C DEB",
        "meta_object_id": "1999-025CUH",
        "meta_epoch": "2025-12-07T10:47:50.080416",
        "meta_mean_motion": 13.50489719,
        "meta_eccentricity": 0.02942517,
        "meta_inclination": 99.5045,
        "meta_ra_of_asc_node": 60.6344,
        "meta_arg_of_pericenter": 159.1155,
        "meta_mean_anomaly": 265.3027,
        "meta_ephemeris_type": 0,
        "meta_classification_type": "U",
        "meta_norad_cat_id": 32187,
        "meta_element_set_no": 999,
        "meta_rev_at_epoch": 66187,
        "meta_bstar": 0.0008719815,
        "meta_mean_motion_dot": 6.91e-06,
        "meta_mean_motion_ddot": 0,
        "tle_line1": "1 32187U 99025CUH 25341.44988519  .00000691  00000+0  87198-3 0  9990",
        "tle_line2": "2 32187  99.5045  60.6344 0294251 159.1155 265.3027 13.50489719661878"
      },
      "geometry": {
        "type": "Point",
        "coordinates": [
          -115.51390988311859,
          10.48600354314781
        ]
      }
    },
    {
      "type": "Feature",
      "properties": {
        "norad_id": 32191,
        "name": "FENGYUN 1C DEB",
        "group": "fengyun-1c-debris",
        "lat": 18.929529553667617,
        "lon": -137.24025355897282,
        "alt_km": 752.5846753615524,
        "timestamp": "2025-12-09T14:52:26.447739+00:00",
        "meta_object_name": "FENGYUN 1C DEB",
        "meta_object_id": "1999-025CUM",
        "meta_epoch": "2025-12-07T21:40:40.928736",
        "meta_mean_motion": 14.25144424,
        "meta_eccentricity": 0.00936775,
        "meta_inclination": 98.7071,
        "meta_ra_of_asc_node": 38.0439,
        "meta_arg_of_pericenter": 200.4354,
        "meta_mean_anomaly": 159.3067,
        "meta_ephemeris_type": 0,
        "meta_classification_type": "U",
        "meta_norad_cat_id": 32191,
        "meta_element_set_no": 999,
        "meta_rev_at_epoch": 64432,
        "meta_bstar": 0.0020420613,
        "meta_mean_motion_dot": 4.976e-05,
        "meta_mean_motion_ddot": 0,
        "tle_line1": "1 32191U 99025CUM 25341.90325149  .00004976  00000+0  20421-2 0  9995",
        "tle_line2": "2 32191  98.7071  38.0439 0093677 200.4354 159.3067 14.25144424644328"
      },
      "geometry": {
        "type": "Point",
        "coordinates": [
          -137.24025355897282,
          18.929529553667617
        ]
      }
    },
    {
      "type": "Feature",
      "properties": {
        "norad_id": 32192,
        "name": "FENGYUN 1C DEB",
        "group": "fengyun-1c-debris",
        "lat": 54.89595386128547,
        "lon": -157.76449291675206,
        "alt_km": 1003.9448510993852,
        "timestamp": "2025-12-09T14:52:26.447750+00:00",
        "meta_object_name": "FENGYUN 1C DEB",
        "meta_object_id": "1999-025CUN",
        "meta_epoch": "2025-12-09T02:26:19.028832",
        "meta_mean_motion": 13.82508376,
        "meta_eccentricity": 0.01814912,
        "meta_inclination": 98.6531,
        "meta_ra_of_asc_node": 214.2708,
        "meta_arg_of_pericenter": 172.2863,
        "meta_mean_anomaly": 188.1152,
        "meta_ephemeris_type": 0,
        "meta_classification_type": "U",
        "meta_norad_cat_id": 32192,
        "meta_element_set_no": 999,
        "meta_rev_at_epoch": 92662,
        "meta_bstar": 0.00038696582,
        "meta_mean_motion_dot": 4.37e-06,
        "meta_mean_motion_ddot": 0,
        "tle_line1": "1 32192U 99025CUN 25343.10160913  .00000437  00000+0  38697-3 0  9999",
        "tle_line2": "2 32192  98.6531 214.2708 0181491 172.2863 188.1152 13.82508376926622"
      },
      "geometry": {
        "type": "Point",
        "coordinates": [
          -157.76449291675206,
          54.89595386128547
        ]
      }
    },
    {
      "type": "Feature",
      "properties": {
        "norad_id": 32195,
        "name": "FENGYUN 1C DEB",
        "group": "fengyun-1c-debris",
        "lat": 29.48037417491622,
        "lon": -18.891537202779325,
        "alt_km": 854.6882975486378,
        "timestamp": "2025-12-09T14:52:26.447760+00:00",
        "meta_object_name": "FENGYUN 1C DEB",
        "meta_object_id": "1999-025CUR",
        "meta_epoch": "2025-12-04T06:51:46.584576",
        "meta_mean_motion": 14.08440247,
        "meta_eccentricity": 0.0068891,
        "meta_inclination": 98.773,
        "meta_ra_of_asc_node": 340.9294,
        "meta_arg_of_pericenter": 324.3515,
        "meta_mean_anomaly": 35.3064,
        "meta_ephemeris_type": 0,
        "meta_classification_type": "U",
        "meta_norad_cat_id": 32195,
        "meta_element_set_no": 999,
        "meta_rev_at_epoch": 63863,
        "meta_bstar": 0.0010039,
        "meta_mean_motion_dot": 1.715e-05,
        "meta_mean_motion_ddot": 0,
        "tle_line1": "1 32195U 99025CUR 25338.28595584  .00001715  00000+0  10039-2 0  9990",
        "tle_line2": "2 32195  98.7730 340.9294 0068891 324.3515  35.3064 14.08440247638633"
      },
      "geometry": {
        "type": "Point",
        "coordinates": [
          -18.891537202779325,
          29.48037417491622
        ]
      }
    },
    {
      "type": "Feature",
      "properties": {
        "norad_id": 32197,
        "name": "FENGYUN 1C DEB",
        "group": "fengyun-1c-debris",
        "lat": -57.72767793850048,
        "lon": 58.24469151295645,
        "alt_km": 674.4935669196811,
        "timestamp": "2025-12-09T14:52:26.447771+00:00",
        "meta_object_name": "FENGYUN 1C DEB",
        "meta_object_id": "1999-025CUT",
        "meta_epoch": "2025-12-08T00:57:21.814848",
        "meta_mean_motion": 14.32647927,
        "meta_eccentricity": 0.01611856,
        "meta_inclination": 98.9013,
        "meta_ra_of_asc_node": 250.9914,
        "meta_arg_of_pericenter": 243.7219,
        "meta_mean_anomaly": 131.2163,
        "meta_ephemeris_type": 0,
        "meta_classification_type": "U",
        "meta_norad_cat_id": 32197,
        "meta_element_set_no": 999,
        "meta_rev_at_epoch": 94356,
        "meta_bstar": 0.00062877937,
        "meta_mean_motion_dot": 1.922e-05,
        "meta_mean_motion_ddot": 0,
        "tle_line1": "1 32197U 99025CUT 25342.03983582  .00001922  00000+0  62878-3 0  9998",
        "tle_line2": "2 32197  98.9013 250.9914 0161185 243.7219 131.2163 14.32647927943563"
      },
      "geometry": {
        "type": "Point",
        "coordinates": [
          58.24469151295645,
          -57.72767793850048
        ]
      }
    }
  ]
}